{"type": "FeatureCollection", "features": [ {"type": "Feature", "properties": {"norad_id": 66835, "name": "STARLINK-35890", "group": "last-30-days", "lat": 69.95201879524664, "lon": -77.02044609950273, "alt_km": 334.83912300563134, "timestamp": "2025-12-13T16:48:31.466967+00:00", "meta": {"OBJECT_NAME": "STARLINK-35890", "OBJECT_ID": "2025-280Q", "EPOCH": "2025-12-12T20:00:01.999872", "MEAN_MOTION": 15.79873339, "ECCENTRICITY": 0.00038273, "INCLINATION": 69.9924, "RA_OF_ASC_NODE": 198.54, "ARG_OF_PERICENTER": 270.4748, "MEAN_ANOMALY": 293.9543, "EPHEMERIS_TYPE": 0, "CLASSIFICATION_TYPE": "U", "NORAD_CAT_ID": 66835, "ELEMENT_SET_NO": 999, "REV_AT_EPOCH": 291, "BSTAR": -0.010755167, "MEAN_MOTION_DOT": -0.01758588, "MEAN_MOTION_DDOT": 0}, "tle": {"line1": "1 66835U 25280Q   25346.83335648 -.01758588  00000+0 -10755-1 0  9997", "line2": "2 66835  69.9924 198.5400 0003827 270.4748 293.9543 15.79873339  2910"}}, "geometry": {"type": "Point", "coordinates": [-77.02044609950273, 69.95201879524664]}}, {"type": "Feature", "properties": {"norad_id": 66836, "name": "STARLINK-35838", "group": "last-30-days", "lat": 69.95674861959067, "lon": -71.12746912705472, "alt_km": 334.8372923898305, "timestamp": "2025-12-13T16:48:31.466979+00:00", "meta": {"OBJECT_NAME": "STARLINK-35838", "OBJECT_ID": "2025-280R", "EPOCH": "2025-12-12T20:00:01.999872", "MEAN_MOTION": 15.79873517, "ECCENTRICITY": 0.00037714, "INCLINATION": 69.9923, "RA_OF_ASC_NODE": 198.5373, "ARG_OF_PERICENTER": 270.3284, "MEAN_ANOMALY": 296.1428, "EPHEMERIS_TYPE": 0, "CLASSIFICATION_TYPE": "U", "NORAD_CAT_ID": 66836, "ELEMENT_SET_NO": 999, "REV_AT_EPOCH": 291, "BSTAR": -0.010810178, "MEAN_MOTION_DOT": -0.01766475, "MEAN_MOTION_DDOT": 0}, "tle": {"line1": "1 66836U 25280R   25346.83335648 -.01766475  00000+0 -10810-1 0  9994", "line2": "2 66836  69.9923 198.5373 0003771 270.3284 296.1428 15.79873517  2916"}}, "geometry": {"type": "Point", "coordinates": [-71.12746912705472, 69.95674861959067]}}, {"type": "Feature", "properties": {"norad_id": 66837, "name": "STARLINK-35729", "group": "last-30-days", "lat": 69.77111553891851, "lon": -65.36915399692607, "alt_km": 334.72412493491083, "timestamp": "2025-12-13T16:48:31.466990+00:00", "meta": {"OBJECT_NAME": "STARLINK-35729", "OBJECT_ID": "2025-280S", "EPOCH": "2025-12-12T20:00:01.999872", "MEAN_MOTION": 15.79880316, "ECCENTRICITY": 0.00035164, "INCLINATION": 69.9921, "RA_OF_ASC_NODE": 198.5348, "ARG_OF_PERICENTER": 274.1396, "MEAN_ANOMALY": 294.3402, "EPHEMERIS_TYPE": 0, "CLASSIFICATION_TYPE": "U", "NORAD_CAT_ID": 66837, "ELEMENT_SET_NO": 999, "REV_AT_EPOCH": 291, "BSTAR": -0.01090536, "MEAN_MOTION_DOT": -0.01780392, "MEAN_MOTION_DDOT": 0}, "tle": {"line1": "1 66837U 25280S   25346.83335648 -.01780392  00000+0 -10905-1 0  9994", "line2": "2 66837  69.9921 198.5348 0003516 274.1396 294.3402 15.79880316  2917"}}, "geometry": {"type": "Point", "coordinates": [-65.36915399692607, 69.77111553891851]}}, {"type": "Feature", "properties": {"norad_id": 66838, "name": "STARLINK-35886", "group": "last-30-days", "lat": 68.87870946968707, "lon": -54.55164681903181, "alt_km": 334.7646286324698, "timestamp": "2025-12-13T16:48:31.467000+00:00", "meta": {"OBJECT_NAME": "STARLINK-35886", "OBJECT_ID": "2025-280T", "EPOCH": "2025-12-12T20:00:01.999872", "MEAN_MOTION": 15.79900815, "ECCENTRICITY": 0.00035224, "INCLINATION": 69.992, "RA_OF_ASC_NODE": 198.5301, "ARG_OF_PERICENTER": 273.0666, "MEAN_ANOMALY": 299.2801, "EPHEMERIS_TYPE": 0, "CLASSIFICATION_TYPE": "U", "NORAD_CAT_ID": 66838, "ELEMENT_SET_NO": 999, "REV_AT_EPOCH": 291, "BSTAR": -0.010932131, "MEAN_MOTION_DOT": -0.01785729, "MEAN_MOTION_DDOT": 0}, "tle": {"line1": "1 66838U 25280T   25346.83335648 -.01785729  00000+0 -10932-1 0  9994", "line2": "2 66838  69.9920 198.5301 0003522 273.0666 299.2801 15.79900815  2915"}}, "geometry": {"type": "Point", "coordinates": [-54.55164681903181, 68.87870946968707]}}, {"type": "Feature", "properties": {"norad_id": 66839, "name": "STARLINK-35717", "group": "last-30-days", "lat": 69.41891151470334, "lon": -59.9650381596944, "alt_km": 334.8185262210145, "timestamp": "2025-12-13T16:48:31.467010+00:00", "meta": {"OBJECT_NAME": "STARLINK-35717", "OBJECT_ID": "2025-280U", "EPOCH": "2025-12-12T20:00:01.999872", "MEAN_MOTION": 15.79897002, "ECCENTRICITY": 0.00036982, "INCLINATION": 69.9921, "RA_OF_ASC_NODE": 198.5325, "ARG_OF_PERICENTER": 268.8879, "MEAN_ANOMALY": 301.4603, "EPHEMERIS_TYPE": 0, "CLASSIFICATION_TYPE": "U", "NORAD_CAT_ID": 66839, "ELEMENT_SET_NO": 999, "REV_AT_EPOCH": 291, "BSTAR": -0.010899897, "MEAN_MOTION_DOT": -0.01781008, "MEAN_MOTION_DDOT": 0}, "tle": {"line1": "1 66839U 25280U   25346.83335648 -.01781008  00000+0 -10900-1 0  9996", "line2": "2 66839  69.9921 198.5325 0003698 268.8879 301.4603 15.79897002  2914"}}, "geometry": {"type": "Point", "coordinates": [-59.9650381596944, 69.41891151470334]}}, {"type": "Feature", "properties": {"norad_id": 66840, "name": "STARLINK-35837", "group": "last-30-days", "lat": 68.18764533207157, "lon": -49.50824508978932, "alt_km": 334.8341422883268, "timestamp": "2025-12-13T16:48:31.467020+00:00", "meta": {"OBJECT_NAME": "STARLINK-35837", "OBJECT_ID": "2025-280V", "EPOCH": "2025-12-12T20:00:01.999872", "MEAN_MOTION": 15.79910296, "ECCENTRICITY": 0.00035344, "INCLINATION": 69.9924, "RA_OF_ASC_NODE": 198.5282, "ARG_OF_PERICENTER": 273.0729, "MEAN_ANOMALY": 301.2338, "EPHEMERIS_TYPE": 0, "CLASSIFICATION_TYPE": "U", "NORAD_CAT_ID": 66840, "ELEMENT_SET_NO": 999, "REV_AT_EPOCH": 291, "BSTAR": -0.010973518, "MEAN_MOTION_DOT": -0.0179238, "MEAN_MOTION_DDOT": 0}, "tle": {"line1": "1 66840U 25280V   25346.83335648 -.01792380  00000+0 -10974-1 0  9994", "line2": "2 66840  69.9924 198.5282 0003534 273.0729 301.2338 15.79910296  2916"}}, "geometry": {"type": "Point", "coordinates": [-49.50824508978932, 68.18764533207157]}}, {"type": "Feature", "properties": {"norad_id": 66841, "name": "STARLINK-35715", "group": "last-30-days", "lat": 67.34136065593243, "lon": -44.737109738906234, "alt_km": 335.01344317866096, "timestamp": "2025-12-13T16:48:31.467034+00:00", "meta": {"OBJECT_NAME": "STARLINK-35715", "OBJECT_ID": "2025-280W", "EPOCH": "2025-12-12T20:00:01.999872", "MEAN_MOTION": 15.79916576, "ECCENTRICITY": 0.00036892, "INCLINATION": 69.992, "RA_OF_ASC_NODE": 198.5254, "ARG_OF_PERICENTER": 269.8287, "MEAN_ANOMALY": 306.4822, "EPHEMERIS_TYPE": 0, "CLASSIFICATION_TYPE": "U", "NORAD_CAT_ID": 66841, "ELEMENT_SET_NO": 999, "REV_AT_EPOCH": 291, "BSTAR": -0.011035224, "MEAN_MOTION_DOT": -0.01801873, "MEAN_MOTION_DDOT": 0}, "tle": {"line1": "1 66841U 25280W   25346.83335648 -.01801873  00000+0 -11035-1 0  9992", "line2": "2 66841  69.9920 198.5254 0003689 269.8287 306.4822 15.79916576  2917"}}, "geometry": {"type": "Point", "coordinates": [-44.737109738906234, 67.34136065593243]}}, {"type": "Feature", "properties": {"norad_id": 66842, "name": "STARLINK-35769", "group": "last-30-days", "lat": 66.3951234510991, "lon": -40.44136294294429, "alt_km": 335.0190575230381, "timestamp": "2025-12-13T16:48:31.467044+00:00", "meta": {"OBJECT_NAME": "STARLINK-35769", "OBJECT_ID": "2025-280X", "EPOCH": "2025-12-12T20:00:01.999872", "MEAN_MOTION": 15.7992965, "ECCENTRICITY": 0.00037092, "INCLINATION": 69.9922, "RA_OF_ASC_NODE": 198.5235, "ARG_OF_PERICENTER": 268.2356, "MEAN_ANOMALY": 309.9563, "EPHEMERIS_TYPE": 0, "CLASSIFICATION_TYPE": "U", "NORAD_CAT_ID": 66842, "ELEMENT_SET_NO": 999, "REV_AT_EPOCH": 291, "BSTAR": -0.011002351, "MEAN_MOTION_DOT": -0.01798125, "MEAN_MOTION_DDOT": 0}, "tle": {"line1": "1 66842U 25280X   25346.83335648 -.01798125  00000+0 -11002-1 0  9992", "line2": "2 66842  69.9922 198.5235 0003709 268.2356 309.9563 15.79929650  2919"}}, "geometry": {"type": "Point", "coordinates": [-40.44136294294429, 66.3951234510991]}}, {"type": "Feature", "properties": {"norad_id": 66843, "name": "STARLINK-35997", "group": "last-30-days", "lat": 64.13688441324106, "lon": -32.68557429087751, "alt_km": 335.24872396294904, "timestamp": "2025-12-13T16:48:31.467056+00:00", "meta": {"OBJECT_NAME": "STARLINK-35997", "OBJECT_ID": "2025-280Y", "EPOCH": "2025-12-12T20:00:01.999872", "MEAN_MOTION": 15.79952382, "ECCENTRICITY": 0.00036197, "INCLINATION": 69.9917, "RA_OF_ASC_NODE": 198.5181, "ARG_OF_PERICENTER": 272.8844, "MEAN_ANOMALY": 309.2493, "EPHEMERIS_TYPE": 0, "CLASSIFICATION_TYPE": "U", "NORAD_CAT_ID": 66843, "ELEMENT_SET_NO": 999, "REV_AT_EPOCH": 291, "BSTAR": -0.011145651, "MEAN_MOTION_DOT": -0.0182026, "MEAN_MOTION_DDOT": 0}, "tle": {"line1": "1 66843U 25280Y   25346.83335648 -.01820260  00000+0 -11146-1 0  9998", "line2": "2 66843  69.9917 198.5181 0003619 272.8844 309.2493 15.79952382  2910"}}, "geometry": {"type": "Point", "coordinates": [-32.68557429087751, 64.13688441324106]}}, {"type": "Feature", "properties": {"norad_id": 66844, "name": "STARLINK-36073", "group": "last-30-days", "lat": 65.27874497764378, "lon": -36.270756979062725, "alt_km": 335.22547414468863, "timestamp": "2025-12-13T16:48:31.467068+00:00", "meta": {"OBJECT_NAME": "STARLINK-36073", "OBJECT_ID": "2025-280Z", "EPOCH": "2025-12-12T20:00:01.999872", "MEAN_MOTION": 15.79929057, "ECCENTRICITY": 0.00036338, "INCLINATION": 69.9919, "RA_OF_ASC_NODE": 198.5205, "ARG_OF_PERICENTER": 273.8169, "MEAN_ANOMALY": 306.4728, "EPHEMERIS_TYPE": 0, "CLASSIFICATION_TYPE": "U", "NORAD_CAT_ID": 66844, "ELEMENT_SET_NO": 999, "REV_AT_EPOCH": 291, "BSTAR": -0.011141283, "MEAN_MOTION_DOT": -0.01817936, "MEAN_MOTION_DDOT": 0}, "tle": {"line1": "1 66844U 25280Z   25346.83335648 -.01817936  00000+0 -11141-1 0  9990", "line2": "2 66844  69.9919 198.5205 0003633 273.8169 306.4728 15.79929057  2910"}}, "geometry": {"type": "Point", "coordinates": [-36.270756979062725, 65.27874497764378]}}]}